{
  "type": "FeatureCollection",
  "features": [
    {
      "type": "Feature",
      "properties": {
        "norad_id": 29798,
        "name": "FENGYUN 1C DEB",
        "group": "fengyun-1c-debris",
        "lat": -41.78128792850461,
        "lon": -122.84680535366158,
        "alt_km": 821.1745831122444,
        "timestamp": "2025-12-27T10:28:59.065916+00:00",
        "meta_object_name": "FENGYUN 1C DEB",
        "meta_object_id": "1999-025CQ",
        "meta_epoch": "2025-12-27T04:35:26.520288",
        "meta_mean_motion": 13.99635874,
        "meta_eccentricity": 0.0112207,
        "meta_inclination": 99.2948,
        "meta_ra_of_asc_node": 65.3181,
        "meta_arg_of_pericenter": 233.1402,
        "meta_mean_anomaly": 193.0525,
        "meta_ephemeris_type": 0,
        "meta_classification_type": "U",
        "meta_norad_cat_id": 29798,
        "meta_element_set_no": 999,
        "meta_rev_at_epoch": 96127,
        "meta_bstar": 0.0018802,
        "meta_mean_motion_dot": 2.855e-05,
        "meta_mean_motion_ddot": 0,
        "tle_line1": "1 29798U 99025CQ  25361.19127917  .00002855  00000+0  18802-2 0  9994",
        "tle_line2": "2 29798  99.2948  65.3181 0112207 233.1402 193.0525 13.99635874961275"
      },
      "geometry": {
        "type": "Point",
        "coordinates": [
          -122.84680535366158,
          -41.78128792850461
        ]
      }
    },
    {
      "type": "Feature",
      "properties": {
        "norad_id": 29800,
        "name": "FENGYUN 1C DEB",
        "group": "fengyun-1c-debris",
        "lat": -22.790592757450412,
        "lon": 25.161418448393484,
        "alt_km": 988.5611187067852,
        "timestamp": "2025-12-27T10:28:59.065926+00:00",
        "meta_object_name": "FENGYUN 1C DEB",
        "meta_object_id": "1999-025CS",
        "meta_epoch": "2025-12-25T12:58:14.687328",
        "meta_mean_motion": 13.98631422,
        "meta_eccentricity": 0.0133875,
        "meta_inclination": 98.291,
        "meta_ra_of_asc_node": 19.933,
        "meta_arg_of_pericenter": 191.628,
        "meta_mean_anomaly": 321.744,
        "meta_ephemeris_type": 0,
        "meta_classification_type": "U",
        "meta_norad_cat_id": 29800,
        "meta_element_set_no": 999,
        "meta_rev_at_epoch": 95755,
        "meta_bstar": 0.0014898,
        "meta_mean_motion_dot": 2.271e-05,
        "meta_mean_motion_ddot": 0,
        "tle_line1": "1 29800U 99025CS  25359.54044777  .00002271  00000+0  14898-2 0  9999",
        "tle_line2": "2 29800  98.2910  19.9330 0133875 191.6280 321.7440 13.98631422957550"
      },
      "geometry": {
        "type": "Point",
        "coordinates": [
          25.161418448393484,
          -22.790592757450412
        ]
      }
    },
    {
      "type": "Feature",
      "properties": {
        "norad_id": 29801,
        "name": "FENGYUN 1C DEB",
        "group": "fengyun-1c-debris",
        "lat": 70.0256856579152,
        "lon": -122.45334574721792,
        "alt_km": 829.808909047877,
        "timestamp": "2025-12-27T10:28:59.065936+00:00",
        "meta_object_name": "FENGYUN 1C DEB",
        "meta_object_id": "1999-025CT",
        "meta_epoch": "2025-12-27T00:09:36.063360",
        "meta_mean_motion": 14.35912862,
        "meta_eccentricity": 0.0102979,
        "meta_inclination": 98.7951,
        "meta_ra_of_asc_node": 262.3194,
        "meta_arg_of_pericenter": 224.8678,
        "meta_mean_anomaly": 145.545,
        "meta_ephemeris_type": 0,
        "meta_classification_type": "U",
        "meta_norad_cat_id": 29801,
        "meta_element_set_no": 999,
        "meta_rev_at_epoch": 99146,
        "meta_bstar": 0.0001959,
        "meta_mean_motion_dot": 5.55e-06,
        "meta_mean_motion_ddot": 0,
        "tle_line1": "1 29801U 99025CT  25361.00666740  .00000555  00000+0  19590-3 0  9992",
        "tle_line2": "2 29801  98.7951 262.3194 0102979 224.8678 145.5450 14.35912862991467"
      },
      "geometry": {
        "type": "Point",
        "coordinates": [
          -122.45334574721792,
          70.0256856579152
        ]
      }
    },
    {
      "type": "Feature",
      "properties": {
        "norad_id": 29802,
        "name": "FENGYUN 1C DEB",
        "group": "fengyun-1c-debris",
        "lat": 20.148119054486184,
        "lon": 108.00054367509544,
        "alt_km": 683.4420543108727,
        "timestamp": "2025-12-27T10:28:59.065947+00:00",
        "meta_object_name": "FENGYUN 1C DEB",
        "meta_object_id": "1999-025CU",
        "meta_epoch": "2025-12-26T06:34:51.436416",
        "meta_mean_motion": 14.62667378,
        "meta_eccentricity": 0.0037468,
        "meta_inclination": 98.6189,
        "meta_ra_of_asc_node": 109.9775,
        "meta_arg_of_pericenter": 296.1595,
        "meta_mean_anomaly": 85.7073,
        "meta_ephemeris_type": 0,
        "meta_classification_type": "U",
        "meta_norad_cat_id": 29802,
        "meta_element_set_no": 999,
        "meta_rev_at_epoch": 98671,
        "meta_bstar": 0.0028562,
        "meta_mean_motion_dot": 0.00014654,
        "meta_mean_motion_ddot": 0,
        "tle_line1": "1 29802U 99025CU  25360.27420644  .00014654  00000+0  28562-2 0  9995",
        "tle_line2": "2 29802  98.6189 109.9775 0037468 296.1595  85.7073 14.62667378986718"
      },
      "geometry": {
        "type": "Point",
        "coordinates": [
          108.00054367509544,
          20.148119054486184
        ]
      }
    },
    {
      "type": "Feature",
      "properties": {
        "norad_id": 29804,
        "name": "FENGYUN 1C DEB",
        "group": "fengyun-1c-debris",
        "lat": 24.259401311375914,
        "lon": -166.7958095722836,
        "alt_km": 895.7643226175514,
        "timestamp": "2025-12-27T10:28:59.065979+00:00",
        "meta_object_name": "FENGYUN 1C DEB",
        "meta_object_id": "1999-025CW",
        "meta_epoch": "2025-12-26T23:36:52.511904",
        "meta_mean_motion": 14.04323541,
        "meta_eccentricity": 0.009707,
        "meta_inclination": 98.8047,
        "meta_ra_of_asc_node": 8.7599,
        "meta_arg_of_pericenter": 261.5987,
        "meta_mean_anomaly": 126.6449,
        "meta_ephemeris_type": 0,
        "meta_classification_type": "U",
        "meta_norad_cat_id": 29804,
        "meta_element_set_no": 999,
        "meta_rev_at_epoch": 97094,
        "meta_bstar": 1.1023e-05,
        "meta_mean_motion_dot": -2.5e-07,
        "meta_mean_motion_ddot": 0,
        "tle_line1": "1 29804U 99025CW  25360.98394111 -.00000025  00000+0  11023-4 0  9998",
        "tle_line2": "2 29804  98.8047   8.7599 0097070 261.5987 126.6449 14.04323541970948"
      },
      "geometry": {
        "type": "Point",
        "coordinates": [
          -166.7958095722836,
          24.259401311375914
        ]
      }
    },
    {
      "type": "Feature",
      "properties": {
        "norad_id": 29805,
        "name": "FENGYUN 1C DEB",
        "group": "fengyun-1c-debris",
        "lat": 78.4358583948734,
        "lon": -1.9896261450038886,
        "alt_km": 1023.5742383224624,
        "timestamp": "2025-12-27T10:28:59.065991+00:00",
        "meta_object_name": "FENGYUN 1C DEB",
        "meta_object_id": "1999-025CX",
        "meta_epoch": "2025-12-27T03:04:08.586624",
        "meta_mean_motion": 13.72662352,
        "meta_eccentricity": 0.0188517,
        "meta_inclination": 99.4531,
        "meta_ra_of_asc_node": 52.215,
        "meta_arg_of_pericenter": 192.2892,
        "meta_mean_anomaly": 167.3624,
        "meta_ephemeris_type": 0,
        "meta_classification_type": "U",
        "meta_norad_cat_id": 29805,
        "meta_element_set_no": 999,
        "meta_rev_at_epoch": 94900,
        "meta_bstar": 0.00017011,
        "meta_mean_motion_dot": 1.33e-06,
        "meta_mean_motion_ddot": 0,
        "tle_line1": "1 29805U 99025CX  25361.12787716  .00000133  00000+0  17011-3 0  9994",
        "tle_line2": "2 29805  99.4531  52.2150 0188517 192.2892 167.3624 13.72662352949003"
      },
      "geometry": {
        "type": "Point",
        "coordinates": [
          -1.9896261450038886,
          78.4358583948734
        ]
      }
    },
    {
      "type": "Feature",
      "properties": {
        "norad_id": 29806,
        "name": "FENGYUN 1C DEB",
        "group": "fengyun-1c-debris",
        "lat": -30.885428770178834,
        "lon": -168.4538606891666,
        "alt_km": 838.1094010448287,
        "timestamp": "2025-12-27T10:28:59.066002+00:00",
        "meta_object_name": "FENGYUN 1C DEB",
        "meta_object_id": "1999-025CY",
        "meta_epoch": "2025-12-25T23:44:59.531424",
        "meta_mean_motion": 14.1203138,
        "meta_eccentricity": 0.002802,
        "meta_inclination": 98.7123,
        "meta_ra_of_asc_node": 15.4026,
        "meta_arg_of_pericenter": 213.4796,
        "meta_mean_anomaly": 205.1423,
        "meta_ephemeris_type": 0,
        "meta_classification_type": "U",
        "meta_norad_cat_id": 29806,
        "meta_element_set_no": 999,
        "meta_rev_at_epoch": 97326,
        "meta_bstar": 0.00051177,
        "meta_mean_motion_dot": 8.98e-06,
        "meta_mean_motion_ddot": 0,
        "tle_line1": "1 29806U 99025CY  25359.98957791  .00000898  00000+0  51177-3 0  9997",
        "tle_line2": "2 29806  98.7123  15.4026 0028020 213.4796 205.1423 14.12031380973266"
      },
      "geometry": {
        "type": "Point",
        "coordinates": [
          -168.4538606891666,
          -30.885428770178834
        ]
      }
    }
  ]
}